STARLINK-5761           
1 55599U 23020AG  26040.29999543 -.00000033  00000+0  12633-4 0  9997
2 55599  43.0020 146.3472 0000964 255.1151 104.9584 15.02538227164793
STARLINK-5755           
1 55600U 23020AH  26040.22131183  .00000801  00000+0  74372-4 0  9991
2 55600  43.0027 146.6349 0001217 254.4944 105.5765 15.02534855164783
STARLINK-5744           
1 55601U 23020AJ  26039.36671064  .00000354  00000+0  41246-4 0  9999
2 55601  43.0028 163.5185 0001371 272.2083  87.8602 15.02536957164512
STARLINK-5764           
1 55602U 23020AK  26040.29778262  .00001844  00000+0  15152-3 0  9993
2 55602  43.0014 146.3294 0001088 260.5894  99.4826 15.02543615164799
STARLINK-5735           
1 55603U 23020AL  26040.29114624 -.00001185  00000+0 -72622-4 0  9996
2 55603  43.0125 146.3106 0003402 291.8405  68.2076 15.02520582164791
STARLINK-5748           
1 55604U 23020AM  26040.26031731 -.00000482  00000+0 -20610-4 0  9990
2 55604  43.0096 133.0618 0002547 283.7348  76.3211 15.02526180164943
STARLINK-5725           
1 55605U 23020AN  26039.62189897  .00000945  00000+0  84984-4 0  9992
2 55605  43.0027 149.8735 0001159 274.5938  85.4772 15.02538679164695
STARLINK-5700           
1 55607U 23020AQ  26039.61524413 -.00000345  00000+0 -10448-4 0  9990
2 55607  43.0031 149.8292 0001524 267.8809  92.1858 15.02532044164698
STARLINK-5726           
1 55608U 23020AR  26040.27779985 -.00000087  00000+0  86337-5 0  9994
2 55608  43.0029 146.1994 0001489 269.9054  90.1617 15.02535853164793
STARLINK-5719           
1 55609U 23020AS  26040.28335123 -.00000287  00000+0 -61488-5 0  9991
2 55609  43.0044 146.2422 0001790 285.0595  75.0049 15.02533226164795
STARLINK-5722           
1 55610U 23020AT  26038.34217411 -.00000164  00000+0  29442-5 0  9993
2 55610  43.0030 156.6188 0001397 272.4687  87.5995 15.02535814164503
STARLINK-5730           
1 55611U 23020AU  26039.33711197  .00000881  00000+0  80296-4 0  9992
2 55611  43.0026 151.1834 0001336 265.8499  94.2191 15.02541777164651
STARLINK-5734           
1 55612U 23020AV  26040.26669991  .00000123  00000+0  24215-4 0  9999
2 55612  43.0044 146.1169 0001509 269.6840  90.3829 15.02537651164797
STARLINK-5714           
1 55614U 23020AX  26040.27139208 -.00000202  00000+0  11249-6 0  9999
2 55614  43.0041 133.0978 0001459 258.9317 101.1361 15.02536933164944
STARLINK-5712           
1 55615U 23020AY  26039.59859130  .00000694  00000+0  66483-4 0  9998
2 55615  43.0036 149.7015 0001879 267.1457  92.9170 15.02532358164692
STARLINK-5710           
1 55616U 23020AZ  26039.32379830 -.00000104  00000+0  73982-5 0  9994
2 55616  43.0010 151.0794 0000810 237.7241 122.3523 15.02539704164651
