[{"OBJECT_NAME":"STARLINK-5761","OBJECT_ID":"2023-020AG","EPOCH":"2026-02-09T07:11:59.605152","MEAN_MOTION":15.02538227,"ECCENTRICITY":9.642e-5,"INCLINATION":43.002,"RA_OF_ASC_NODE":146.3472,"ARG_OF_PERICENTER":255.1151,"MEAN_ANOMALY":104.9584,"EPHEMERIS_TYPE":0,"CLASSIFICATION_TYPE":"U","NORAD_CAT_ID":55599,"ELEMENT_SET_NO":999,"REV_AT_EPOCH":16479,"BSTAR":1.2633091e-5,"MEAN_MOTION_DOT":-3.3e-7,"MEAN_MOTION_DDOT":0},{"OBJECT_NAME":"STARLINK-5755","OBJECT_ID":"2023-020AH","EPOCH":"2026-02-09T05:18:41.342112","MEAN_MOTION":15.02534855,"ECCENTRICITY":0.00012174,"INCLINATION":43.0027,"RA_OF_ASC_NODE":146.6349,"ARG_OF_PERICENTER":254.4944,"MEAN_ANOMALY":105.5765,"EPHEMERIS_TYPE":0,"CLASSIFICATION_TYPE":"U","NORAD_CAT_ID":55600,"ELEMENT_SET_NO":999,"REV_AT_EPOCH":16478,"BSTAR":7.4372381e-5,"MEAN_MOTION_DOT":8.01e-6,"MEAN_MOTION_DDOT":0},{"OBJECT_NAME":"STARLINK-5744","OBJECT_ID":"2023-020AJ","EPOCH":"2026-02-08T08:48:03.799296","MEAN_MOTION":15.02536957,"ECCENTRICITY":0.00013719,"INCLINATION":43.0028,"RA_OF_ASC_NODE":163.5185,"ARG_OF_PERICENTER":272.2083,"MEAN_ANOMALY":87.8602,"EPHEMERIS_TYPE":0,"CLASSIFICATION_TYPE":"U","NORAD_CAT_ID":55601,"ELEMENT_SET_NO":999,"REV_AT_EPOCH":16451,"BSTAR":4.124604e-5,"MEAN_MOTION_DOT":3.54e-6,"MEAN_MOTION_DDOT":0},{"OBJECT_NAME":"STARLINK-5764","OBJECT_ID":"2023-020AK","EPOCH":"2026-02-09T07:08:48.418368","MEAN_MOTION":15.02543615,"ECCENTRICITY":0.00010887,"INCLINATION":43.0014,"RA_OF_ASC_NODE":146.3294,"ARG_OF_PERICENTER":260.5894,"MEAN_ANOMALY":99.4826,"EPHEMERIS_TYPE":0,"CLASSIFICATION_TYPE":"U","NORAD_CAT_ID":55602,"ELEMENT_SET_NO":999,"REV_AT_EPOCH":16479,"BSTAR":0.00015151755,"MEAN_MOTION_DOT":1.844e-5,"MEAN_MOTION_DDOT":0},{"OBJECT_NAME":"STARLINK-5735","OBJECT_ID":"2023-020AL","EPOCH":"2026-02-09T06:59:15.035136","MEAN_MOTION":15.02520582,"ECCENTRICITY":0.00034028,"INCLINATION":43.0125,"RA_OF_ASC_NODE":146.3106,"ARG_OF_PERICENTER":291.8405,"MEAN_ANOMALY":68.2076,"EPHEMERIS_TYPE":0,"CLASSIFICATION_TYPE":"U","NORAD_CAT_ID":55603,"ELEMENT_SET_NO":999,"REV_AT_EPOCH":16479,"BSTAR":-7.262233e-5,"MEAN_MOTION_DOT":-1.185e-5,"MEAN_MOTION_DDOT":0},{"OBJECT_NAME":"STARLINK-5748","OBJECT_ID":"2023-020AM","EPOCH":"2026-02-09T06:14:51.415584","MEAN_MOTION":15.0252618,"ECCENTRICITY":0.00025473,"INCLINATION":43.0096,"RA_OF_ASC_NODE":133.0618,"ARG_OF_PERICENTER":283.7348,"MEAN_ANOMALY":76.3211,"EPHEMERIS_TYPE":0,"CLASSIFICATION_TYPE":"U","NORAD_CAT_ID":55604,"ELEMENT_SET_NO":999,"REV_AT_EPOCH":16494,"BSTAR":-2.0609847e-5,"MEAN_MOTION_DOT":-4.82e-6,"MEAN_MOTION_DDOT":0},{"OBJECT_NAME":"STARLINK-5725","OBJECT_ID":"2023-020AN","EPOCH":"2026-02-08T14:55:32.071008","MEAN_MOTION":15.02538679,"ECCENTRICITY":0.00011599,"INCLINATION":43.0027,"RA_OF_ASC_NODE":149.8735,"ARG_OF_PERICENTER":274.5938,"MEAN_ANOMALY":85.4772,"EPHEMERIS_TYPE":0,"CLASSIFICATION_TYPE":"U","NORAD_CAT_ID":55605,"ELEMENT_SET_NO":999,"REV_AT_EPOCH":16469,"BSTAR":8.4984498e-5,"MEAN_MOTION_DOT":9.45e-6,"MEAN_MOTION_DDOT":0},{"OBJECT_NAME":"STARLINK-5700","OBJECT_ID":"2023-020AQ","EPOCH":"2026-02-08T14:45:57.092832","MEAN_MOTION":15.02532044,"ECCENTRICITY":0.00015249,"INCLINATION":43.0031,"RA_OF_ASC_NODE":149.8292,"ARG_OF_PERICENTER":267.8809,"MEAN_ANOMALY":92.1858,"EPHEMERIS_TYPE":0,"CLASSIFICATION_TYPE":"U","NORAD_CAT_ID":55607,"ELEMENT_SET_NO":999,"REV_AT_EPOCH":16469,"BSTAR":-1.0447651e-5,"MEAN_MOTION_DOT":-3.45e-6,"MEAN_MOTION_DDOT":0},{"OBJECT_NAME":"STARLINK-5726","OBJECT_ID":"2023-020AR","EPOCH":"2026-02-09T06:40:01.907040","MEAN_MOTION":15.02535853,"ECCENTRICITY":0.00014891,"INCLINATION":43.0029,"RA_OF_ASC_NODE":146.1994,"ARG_OF_PERICENTER":269.9054,"MEAN_ANOMALY":90.1617,"EPHEMERIS_TYPE":0,"CLASSIFICATION_TYPE":"U","NORAD_CAT_ID":55608,"ELEMENT_SET_NO":999,"REV_AT_EPOCH":16479,"BSTAR":8.63365e-6,"MEAN_MOTION_DOT":-8.7e-7,"MEAN_MOTION_DDOT":0},{"OBJECT_NAME":"STARLINK-5719","OBJECT_ID":"2023-020AS","EPOCH":"2026-02-09T06:48:01.546272","MEAN_MOTION":15.02533226,"ECCENTRICITY":0.00017908,"INCLINATION":43.0044,"RA_OF_ASC_NODE":146.2422,"ARG_OF_PERICENTER":285.0595,"MEAN_ANOMALY":75.0049,"EPHEMERIS_TYPE":0,"CLASSIFICATION_TYPE":"U","NORAD_CAT_ID":55609,"ELEMENT_SET_NO":999,"REV_AT_EPOCH":16479,"BSTAR":-6.14883e-6,"MEAN_MOTION_DOT":-2.87e-6,"MEAN_MOTION_DDOT":0},{"OBJECT_NAME":"STARLINK-5722","OBJECT_ID":"2023-020AT","EPOCH":"2026-02-07T08:12:43.843104","MEAN_MOTION":15.02535814,"ECCENTRICITY":0.00013974,"INCLINATION":43.003,"RA_OF_ASC_NODE":156.6188,"ARG_OF_PERICENTER":272.4687,"MEAN_ANOMALY":87.5995,"EPHEMERIS_TYPE":0,"CLASSIFICATION_TYPE":"U","NORAD_CAT_ID":55610,"ELEMENT_SET_NO":999,"REV_AT_EPOCH":16450,"BSTAR":2.944162e-6,"MEAN_MOTION_DOT":-1.64e-6,"MEAN_MOTION_DDOT":0},{"OBJECT_NAME":"STARLINK-5730","OBJECT_ID":"2023-020AU","EPOCH":"2026-02-08T08:05:26.474208","MEAN_MOTION":15.02541777,"ECCENTRICITY":0.00013364,"INCLINATION":43.0026,"RA_OF_ASC_NODE":151.1834,"ARG_OF_PERICENTER":265.8499,"MEAN_ANOMALY":94.2191,"EPHEMERIS_TYPE":0,"CLASSIFICATION_TYPE":"U","NORAD_CAT_ID":55611,"ELEMENT_SET_NO":999,"REV_AT_EPOCH":16465,"BSTAR":8.0296487e-5,"MEAN_MOTION_DOT":8.81e-6,"MEAN_MOTION_DDOT":0},{"OBJECT_NAME":"STARLINK-5734","OBJECT_ID":"2023-020AV","EPOCH":"2026-02-09T06:24:02.872224","MEAN_MOTION":15.02537651,"ECCENTRICITY":0.00015098,"INCLINATION":43.0044,"RA_OF_ASC_NODE":146.1169,"ARG_OF_PERICENTER":269.684,"MEAN_ANOMALY":90.3829,"EPHEMERIS_TYPE":0,"CLASSIFICATION_TYPE":"U","NORAD_CAT_ID":55612,"ELEMENT_SET_NO":999,"REV_AT_EPOCH":16479,"BSTAR":2.4215258e-5,"MEAN_MOTION_DOT":1.23e-6,"MEAN_MOTION_DDOT":0},{"OBJECT_NAME":"STARLINK-5714","OBJECT_ID":"2023-020AX","EPOCH":"2026-02-09T06:30:48.275712","MEAN_MOTION":15.02536933,"ECCENTRICITY":0.00014594,"INCLINATION":43.0041,"RA_OF_ASC_NODE":133.0978,"ARG_OF_PERICENTER":258.9317,"MEAN_ANOMALY":101.1361,"EPHEMERIS_TYPE":0,"CLASSIFICATION_TYPE":"U","NORAD_CAT_ID":55614,"ELEMENT_SET_NO":999,"REV_AT_EPOCH":16494,"BSTAR":1.12487e-7,"MEAN_MOTION_DOT":-2.02e-6,"MEAN_MOTION_DDOT":0},{"OBJECT_NAME":"STARLINK-5712","OBJECT_ID":"2023-020AY","EPOCH":"2026-02-08T14:21:58.288320","MEAN_MOTION":15.02532358,"ECCENTRICITY":0.0001879,"INCLINATION":43.0036,"RA_OF_ASC_NODE":149.7015,"ARG_OF_PERICENTER":267.1457,"MEAN_ANOMALY":92.917,"EPHEMERIS_TYPE":0,"CLASSIFICATION_TYPE":"U","NORAD_CAT_ID":55615,"ELEMENT_SET_NO":999,"REV_AT_EPOCH":16469,"BSTAR":6.6483e-5,"MEAN_MOTION_DOT":6.94e-6,"MEAN_MOTION_DDOT":0},{"OBJECT_NAME":"STARLINK-5710","OBJECT_ID":"2023-020AZ","EPOCH":"2026-02-08T07:46:16.173120","MEAN_MOTION":15.02539704,"ECCENTRICITY":8.1e-5,"INCLINATION":43.001,"RA_OF_ASC_NODE":151.0794,"ARG_OF_PERICENTER":237.7241,"MEAN_ANOMALY":122.3523,"EPHEMERIS_TYPE":0,"CLASSIFICATION_TYPE":"U","NORAD_CAT_ID":55616,"ELEMENT_SET_NO":999,"REV_AT_EPOCH":16465,"BSTAR":7.3982e-6,"MEAN_MOTION_DOT":-1.04e-6,"MEAN_MOTION_DDOT":0}]
